LEMUR-2-STARLIGHT       
1 66783U 25276DY  26195.73530888  .00003763  00000+0  31171-3 0  9991
2 66783  97.5235 265.4323 0014793  48.7667 311.4829 14.99351208 34322
LEMUR-2-TARTIFLETTE     
1 66784U 25276DZ  26195.73370438  .00003482  00000+0  28903-3 0  9992
2 66784  97.5235 265.4388 0013938  57.0053 303.2508 14.99336751 34325
LEMUR-2-VUKASIN         
1 66785U 25276EA  26195.70443275  .00002583  00000+0  20937-3 0  9990
2 66785  97.5229 265.7686 0003126  56.4856 303.6666 15.00544102 34272
LEMUR-2-HOTSPUR-TOM     
1 66786U 25276EB  26195.72807595  .00002972  00000+0  24802-3 0  9999
2 66786  97.5220 265.4077 0013805  48.2453 311.9948 14.99238404 34257
LEMUR-2-MYRA            
1 66787U 25276EC  26195.73634823  .00003398  00000+0  27270-3 0  9998
2 66787  97.5222 265.7188 0018692  55.6926 304.6064 15.00586112 34345
LEMUR-2 FIKRETDENGIZ    
1 67363U 26004A   26195.56275435  .00001936  00000+0  21400-3 0  9995
2 67363  97.8023 193.7044 0010235  57.7047 302.5160 14.88514452 27351
TWILIGHT-1 OBJECT B     
1 67364U 26004B   26195.59959154  .00000908  00000+0  10535-3 0  9991
2 67364  97.8075 193.7418 0009788  47.7291 312.4754 14.87792350 27369
LEMUR-2-MARIO-SOUSA     
1 67365U 26004C   26195.54270694  .00002612  00000+0  28519-3 0  9997
2 67365  97.7997 193.6797 0009873  58.9174 301.3010 14.88724092 27361
LEMUR-2-SONNENBLUME     
1 67367U 26004E   26195.81434006  .00001451  00000+0  16212-3 0  9995
2 67367  97.8000 193.9201 0009413  59.2660 300.9483 14.88452093 27409
LEMUR-2-WOBLER          
1 67368U 26004F   26195.80369176  .00002235  00000+0  24510-3 0  9991
2 67368  97.8047 194.0602 0009495  51.3767 308.8299 14.88695902 27409
LEMUR-2-GRAM-E-SUE      
1 67370U 26004H   26195.45969850  .00001265  00000+0  14171-3 0  9994
2 67370  97.7986 193.5875 0008649  62.8858 297.3240 14.88587591 27353
LEMUR-2-KATIE           
1 67387U 26004AA  26195.82034743  .00002816  00000+0  29587-3 0  9997
2 67387  97.8042 194.4928 0003552  35.1771 324.9681 14.90249733 27429
LEMUR-2-HCS-BAZUS       
1 67388U 26004AB  26195.55013060  .00001563  00000+0  16681-3 0  9996
2 67388  97.8038 194.2042 0003064  34.2141 325.9274 14.90259379 27380
