OBJECT_NAME,OBJECT_ID,EPOCH,MEAN_MOTION,ECCENTRICITY,INCLINATION,RA_OF_ASC_NODE,ARG_OF_PERICENTER,MEAN_ANOMALY,EPHEMERIS_TYPE,CLASSIFICATION_TYPE,NORAD_CAT_ID,ELEMENT_SET_NO,REV_AT_EPOCH,BSTAR,MEAN_MOTION_DOT,MEAN_MOTION_DDOT
LEMUR-2-STARLIGHT,2025-276DY,2026-07-14T17:38:50.687232,14.99351208,.0014793,97.5235,265.4323,48.7667,311.4829,0,U,66783,999,3432,.31171E-3,.3763E-4,0
LEMUR-2-TARTIFLETTE,2025-276DZ,2026-07-14T17:36:32.058432,14.99336751,.0013938,97.5235,265.4388,57.0053,303.2508,0,U,66784,999,3432,.28903E-3,.3482E-4,0
LEMUR-2-VUKASIN,2025-276EA,2026-07-14T16:54:22.989600,15.00544102,.0003126,97.5229,265.7686,56.4856,303.6666,0,U,66785,999,3427,.20937E-3,.2583E-4,0
LEMUR-2-HOTSPUR-TOM,2025-276EB,2026-07-14T17:28:25.762080,14.99238404,.0013805,97.5220,265.4077,48.2453,311.9948,0,U,66786,999,3425,.24802E-3,.2972E-4,0
LEMUR-2-MYRA,2025-276EC,2026-07-14T17:40:20.487072,15.00586112,.0018692,97.5222,265.7188,55.6926,304.6064,0,U,66787,999,3434,.2727E-3,.3398E-4,0
LEMUR-2 FIKRETDENGIZ,2026-004A,2026-07-14T13:30:21.975840,14.88514452,.0010235,97.8023,193.7044,57.7047,302.5160,0,U,67363,999,2735,.214E-3,.1936E-4,0
TWILIGHT-1 OBJECT B,2026-004B,2026-07-14T14:23:24.709056,14.87792350,.0009788,97.8075,193.7418,47.7291,312.4754,0,U,67364,999,2736,.10535E-3,.908E-5,0
LEMUR-2-MARIO-SOUSA,2026-004C,2026-07-14T13:01:29.879616,14.88724092,.0009873,97.7997,193.6797,58.9174,301.3010,0,U,67365,999,2736,.28519E-3,.2612E-4,0
LEMUR-2-SONNENBLUME,2026-004E,2026-07-14T19:32:38.981184,14.88452093,.0009413,97.8000,193.9201,59.2660,300.9483,0,U,67367,999,2740,.16212E-3,.1451E-4,0
LEMUR-2-WOBLER,2026-004F,2026-07-14T19:17:18.968064,14.88695902,.0009495,97.8047,194.0602,51.3767,308.8299,0,U,67368,999,2740,.2451E-3,.2235E-4,0
LEMUR-2-GRAM-E-SUE,2026-004H,2026-07-14T11:01:57.950400,14.88587591,.00086496,97.7986,193.5875,62.8858,297.3240,0,U,67370,999,2735,.1417072E-3,.1265E-4,0
LEMUR-2-KATIE,2026-004AA,2026-07-14T19:41:18.017952,14.90249733,.0003552,97.8042,194.4928,35.1771,324.9681,0,U,67387,999,2742,.29587E-3,.2816E-4,0
LEMUR-2-HCS-BAZUS,2026-004AB,2026-07-14T13:12:11.283840,14.90259379,.0003064,97.8038,194.2042,34.2141,325.9274,0,U,67388,999,2738,.16681E-3,.1563E-4,0
